ASTROCAST-0404          
1 55112U 23001DH  26068.80836714  .00008870  00000+0  34436-3 0  9994
2 55112  97.5646 161.5422 0006847   1.1317 358.9936 15.26309833129366
STARLINK-32601          
1 61973U 24210Q   26068.62174043  .00036880  00000+0  13424-2 0  9994
2 61973  43.0004 179.8611 0001921 246.0648 114.0002 15.27595740 74874
